{
  "norad_id": 68054,
  "name": "STARLINK-36924",
  "history": [
    {
      "epoch": "2026-03-28T22:00:44.821152Z",
      "apogee_km": 344.9476488463306,
      "perigee_km": 343.0036138733403,
      "latitude_deg": -4.37718083882443e-05,
      "longitude_deg": 169.6982574460778,
      "height_km": 344.066442235533,
      "semi_major_axis_km": 6722.112631359835,
      "eccentricity": 0.0001446,
      "inclination_deg": 53.1595,
      "raan_deg": 326.2158,
      "arg_perigee_deg": 31.88,
      "mean_anomaly_deg": 328.2307,
      "mean_motion_rev_day": 15.752304
    },
    {
      "epoch": "2026-03-30T04:27:34.486848Z",
      "apogee_km": 341.9216839806322,
      "perigee_km": 335.4831903697341,
      "latitude_deg": 2.3151332231775405e-05,
      "longitude_deg": 65.43274842264134,
      "height_km": 338.0079872145024,
      "semi_major_axis_km": 6716.839437175183,
      "eccentricity": 0.00047928,
      "inclination_deg": 53.1587,
      "raan_deg": 319.9076,
      "arg_perigee_deg": 300.1322,
      "mean_anomaly_deg": 59.9224,
      "mean_motion_rev_day": 15.77085765
    }
  ]
}